start=new Date('2023-05-28T00:00:00.000Z').valueOf();
sats=[{"RCS_SIZE":"LARGE","OBJECT_NAME":"STARLINK-6269","TLE_LINE1":"1 56402U 23061AE  23147.83494291  .00002840  00000-0  25097-4 0  9997","CENTER_NAME":"EARTH","ECCENTRICITY":"0.00022330","FILE":"3918755","MEAN_MOTION":"15.71355628","REF_FRAME":"TEME","SITE":"AFETR","MEAN_ELEMENT_THEORY":"SGP4","TLE_LINE2":"2 56402  42.9991 329.5797 0002233 257.5170 102.5448 15.71355628  3710","EPOCH":"2023-05-27T20:02:19.067424","SEMIMAJOR_AXIS":"6733.159","NORAD_CAT_ID":"56402","TIME_SYSTEM":"UTC","COUNTRY_CODE":"US","ARG_OF_PERICENTER":"257.5170","PERIOD":"91.641","GP_ID":"232638599","BSTAR":"0.00002509700000","DECAY_DATE":null,"MEAN_MOTION_DDOT":"0.0000000000000","OBJECT_ID":"2023-061AE","PERIAPSIS":"353.520","APOAPSIS":"356.527","LAUNCH_DATE":"2023-05-04","MEAN_MOTION_DOT":"0.00002840","ELEMENT_SET_NO":"999","REV_AT_EPOCH":"371","MEAN_ANOMALY":"102.5448","RA_OF_ASC_NODE":"329.5797","INCLINATION":"42.9991","OBJECT_TYPE":"PAYLOAD","EPHEMERIS_TYPE":"0","CLASSIFICATION_TYPE":"U"},{"SITE":"AFETR","TLE_LINE2":"2 56403  42.9985 329.2003 0002075 271.4730  88.5900 15.71357636  3720","SEMIMAJOR_AXIS":"6733.153","EPOCH":"2023-05-27T21:34:27.210720","NORAD_CAT_ID":"56403","MEAN_ELEMENT_THEORY":"SGP4","RCS_SIZE":"LARGE","MEAN_MOTION":"15.71357636","FILE":"3918755","REF_FRAME":"TEME","OBJECT_NAME":"STARLINK-6284","TLE_LINE1":"1 56403U 23061AF  23147.89892605  .00002418  00000-0  21881-4 0  9993","CENTER_NAME":"EARTH","ECCENTRICITY":"0.00020750","INCLINATION":"42.9985","RA_OF_ASC_NODE":"329.2003","APOAPSIS":"356.415","ELEMENT_SET_NO":"999","LAUNCH_DATE":"2023-05-04","MEAN_MOTION_DOT":"0.00002418","REV_AT_EPOCH":"372","MEAN_ANOMALY":"88.5900","EPHEMERIS_TYPE":"0","CLASSIFICATION_TYPE":"U","OBJECT_TYPE":"PAYLOAD","ARG_OF_PERICENTER":"271.4730","PERIOD":"91.641","GP_ID":"232638413","TIME_SYSTEM":"UTC","COUNTRY_CODE":"US","OBJECT_ID":"2023-061AF","PERIAPSIS":"353.621","BSTAR":"0.00002188100000","DECAY_DATE":null,"MEAN_MOTION_DDOT":"0.0000000000000"},{"ARG_OF_PERICENTER":"266.8127","PERIOD":"91.640","GP_ID":"232638537","TIME_SYSTEM":"UTC","COUNTRY_CODE":"US","OBJECT_ID":"2023-061AG","PERIAPSIS":"353.661","BSTAR":"0.00005094900000","DECAY_DATE":null,"MEAN_MOTION_DDOT":"0.0000000000000","RA_OF_ASC_NODE":"329.5792","INCLINATION":"42.9989","APOAPSIS":"356.362","MEAN_MOTION_DOT":"0.00006235","LAUNCH_DATE":"2023-05-04","ELEMENT_SET_NO":"999","REV_AT_EPOCH":"371","MEAN_ANOMALY":"93.2511","EPHEMERIS_TYPE":"0","CLASSIFICATION_TYPE":"U","OBJECT_TYPE":"PAYLOAD","RCS_SIZE":"LARGE","MEAN_MOTION":"15.71359829","FILE":"3918755","REF_FRAME":"TEME","OBJECT_NAME":"STARLINK-6287","TLE_LINE1":"1 56404U 23061AG  23147.83473303  .00006235  00000-0  50949-4 0  9996","CENTER_NAME":"EARTH","ECCENTRICITY":"0.00020060","SITE":"AFETR","TLE_LINE2":"2 56404  42.9989 329.5792 0002006 266.8127  93.2511 15.71359829  3711","EPOCH":"2023-05-27T20:02:00.933792","SEMIMAJOR_AXIS":"6733.147","NORAD_CAT_ID":"56404","MEAN_ELEMENT_THEORY":"SGP4"},{"REF_FRAME":"TEME","MEAN_MOTION":"15.71359116","FILE":"3918755","TLE_LINE1":"1 56405U 23061AH  23147.83515613  .00003128  00000-0  27290-4 0  9999","CENTER_NAME":"EARTH","ECCENTRICITY":"0.00019050","OBJECT_NAME":"STARLINK-6285","RCS_SIZE":"LARGE","EPOCH":"2023-05-27T20:02:37.489632","SEMIMAJOR_AXIS":"6733.149","NORAD_CAT_ID":"56405","TLE_LINE2":"2 56405  42.9990 329.5829 0001905 274.0074  86.0576 15.71359116  3714","MEAN_ELEMENT_THEORY":"SGP4","SITE":"AFETR","PERIAPSIS":"353.731","OBJECT_ID":"2023-061AH","DECAY_DATE":null,"MEAN_MOTION_DDOT":"0.0000000000000","BSTAR":"0.00002729000000","PERIOD":"91.640","ARG_OF_PERICENTER":"274.0074","GP_ID":"232638227","COUNTRY_CODE":"US","TIME_SYSTEM":"UTC","CLASSIFICATION_TYPE":"U","EPHEMERIS_TYPE":"0","OBJECT_TYPE":"PAYLOAD","RA_OF_ASC_NODE":"329.5829","INCLINATION":"42.9990","REV_AT_EPOCH":"371","MEAN_ANOMALY":"86.0576","APOAPSIS":"356.296","MEAN_MOTION_DOT":"0.00003128","LAUNCH_DATE":"2023-05-04","ELEMENT_SET_NO":"999"},{"CENTER_NAME":"EARTH","ECCENTRICITY":"0.00022830","TLE_LINE1":"1 56406U 23061AJ  23147.83441704  .00007416  00000-0  59944-4 0  9994","OBJECT_NAME":"STARLINK-6283","REF_FRAME":"TEME","MEAN_MOTION":"15.71356517","FILE":"3918755","RCS_SIZE":"LARGE","MEAN_ELEMENT_THEORY":"SGP4","NORAD_CAT_ID":"56406","SEMIMAJOR_AXIS":"6733.156","EPOCH":"2023-05-27T20:01:33.632256","TLE_LINE2":"2 56406  42.9981 329.5746 0002283 267.8584  92.2022 15.71356517  3716","SITE":"AFETR","MEAN_MOTION_DDOT":"0.0000000000000","DECAY_DATE":null,"BSTAR":"0.00005994400000","PERIAPSIS":"353.484","OBJECT_ID":"2023-061AJ","COUNTRY_CODE":"US","TIME_SYSTEM":"UTC","GP_ID":"232638351","PERIOD":"91.641","ARG_OF_PERICENTER":"267.8584","OBJECT_TYPE":"PAYLOAD","CLASSIFICATION_TYPE":"U","EPHEMERIS_TYPE":"0","MEAN_ANOMALY":"92.2022","REV_AT_EPOCH":"371","LAUNCH_DATE":"2023-05-04","ELEMENT_SET_NO":"999","MEAN_MOTION_DOT":"0.00007416","APOAPSIS":"356.558","INCLINATION":"42.9981","RA_OF_ASC_NODE":"329.5746"},{"PERIOD":"91.640","ARG_OF_PERICENTER":"280.6652","GP_ID":"232638165","COUNTRY_CODE":"US","TIME_SYSTEM":"UTC","PERIAPSIS":"353.373","OBJECT_ID":"2023-061AK","DECAY_DATE":null,"MEAN_MOTION_DDOT":"0.0000000000000","BSTAR":"0.00003742800000","RA_OF_ASC_NODE":"329.5805","INCLINATION":"42.9991","REV_AT_EPOCH":"371","MEAN_ANOMALY":"79.3942","APOAPSIS":"356.643","MEAN_MOTION_DOT":"0.00004459","LAUNCH_DATE":"2023-05-04","ELEMENT_SET_NO":"999","CLASSIFICATION_TYPE":"U","EPHEMERIS_TYPE":"0","OBJECT_TYPE":"PAYLOAD","RCS_SIZE":"LARGE","REF_FRAME":"TEME","MEAN_MOTION":"15.71361088","FILE":"3918755","TLE_LINE1":"1 56407U 23061AK  23147.83483703  .00004459  00000-0  37428-4 0  9997","ECCENTRICITY":"0.00024280","CENTER_NAME":"EARTH","OBJECT_NAME":"STARLINK-6282","SITE":"AFETR","EPOCH":"2023-05-27T20:02:09.919392","SEMIMAJOR_AXIS":"6733.143","NORAD_CAT_ID":"56407","TLE_LINE2":"2 56407  42.9991 329.5805 0002428 280.6652  79.3942 15.71361088  3710","MEAN_ELEMENT_THEORY":"SGP4"},{"MEAN_MOTION":"15.71360004","FILE":"3918755","REF_FRAME":"TEME","OBJECT_NAME":"STARLINK-6289","TLE_LINE1":"1 56408U 23061AL  23147.83431219  .00003227  00000-0  28039-4 0  9993","CENTER_NAME":"EARTH","ECCENTRICITY":"0.00020150","RCS_SIZE":"LARGE","TLE_LINE2":"2 56408  42.9989 329.5748 0002015 272.7149  87.3489 15.71360004  3711","EPOCH":"2023-05-27T20:01:24.573216","SEMIMAJOR_AXIS":"6733.146","NORAD_CAT_ID":"56408","MEAN_ELEMENT_THEORY":"SGP4","SITE":"AFETR","OBJECT_ID":"2023-061AL","PERIAPSIS":"353.654","BSTAR":"0.00002803900000","DECAY_DATE":null,"MEAN_MOTION_DDOT":"0.0000000000000","PERIOD":"91.640","ARG_OF_PERICENTER":"272.7149","GP_ID":"232638290","TIME_SYSTEM":"UTC","COUNTRY_CODE":"US","EPHEMERIS_TYPE":"0","CLASSIFICATION_TYPE":"U","OBJECT_TYPE":"PAYLOAD","INCLINATION":"42.9989","RA_OF_ASC_NODE":"329.5748","APOAPSIS":"356.368","LAUNCH_DATE":"2023-05-04","ELEMENT_SET_NO":"999","MEAN_MOTION_DOT":"0.00003227","REV_AT_EPOCH":"371","MEAN_ANOMALY":"87.3489"},{"SITE":"AFETR","MEAN_ELEMENT_THEORY":"SGP4","TLE_LINE2":"2 56409  42.9991 329.5792 0002206 266.5266  93.5350 15.71359895  3719","SEMIMAJOR_AXIS":"6733.147","EPOCH":"2023-05-27T20:01:51.877344","NORAD_CAT_ID":"56409","RCS_SIZE":"LARGE","OBJECT_NAME":"STARLINK-6241","TLE_LINE1":"1 56409U 23061AM  23147.83462821  .00003477  00000-0  29947-4 0  9993","CENTER_NAME":"EARTH","ECCENTRICITY":"0.00022060","MEAN_MOTION":"15.71359895","FILE":"3918755","REF_FRAME":"TEME","APOAPSIS":"356.497","ELEMENT_SET_NO":"999","LAUNCH_DATE":"2023-05-04","MEAN_MOTION_DOT":"0.00003477","REV_AT_EPOCH":"371","MEAN_ANOMALY":"93.5350","RA_OF_ASC_NODE":"329.5792","INCLINATION":"42.9991","OBJECT_TYPE":"PAYLOAD","EPHEMERIS_TYPE":"0","CLASSIFICATION_TYPE":"U","TIME_SYSTEM":"UTC","COUNTRY_CODE":"US","PERIOD":"91.640","ARG_OF_PERICENTER":"266.5266","GP_ID":"232638476","BSTAR":"0.00002994700000","DECAY_DATE":null,"MEAN_MOTION_DDOT":"0.0000000000000","OBJECT_ID":"2023-061AM","PERIAPSIS":"353.526"},{"MEAN_ANOMALY":"86.1980","REV_AT_EPOCH":"371","LAUNCH_DATE":"2023-05-04","ELEMENT_SET_NO":"999","MEAN_MOTION_DOT":"0.00000403","APOAPSIS":"356.550","RA_OF_ASC_NODE":"329.5733","INCLINATION":"42.9988","OBJECT_TYPE":"PAYLOAD","CLASSIFICATION_TYPE":"U","EPHEMERIS_TYPE":"0","COUNTRY_CODE":"US","TIME_SYSTEM":"UTC","GP_ID":"232638600","ARG_OF_PERICENTER":"273.8627","PERIOD":"91.640","MEAN_MOTION_DDOT":"0.0000000000000","DECAY_DATE":null,"BSTAR":"0.00000652790000","PERIAPSIS":"353.483","OBJECT_ID":"2023-061AN","SITE":"AFETR","MEAN_ELEMENT_THEORY":"SGP4","NORAD_CAT_ID":"56410","EPOCH":"2023-05-27T20:01:06.303936","SEMIMAJOR_AXIS":"6733.151","TLE_LINE2":"2 56410  42.9988 329.5733 0002278 273.8627  86.1980 15.71358196  3713","RCS_SIZE":"LARGE","ECCENTRICITY":"0.00022780","CENTER_NAME":"EARTH","TLE_LINE1":"1 56410U 23061AN  23147.83410074  .00000403  00000-0  65279-5 0  9993","OBJECT_NAME":"STARLINK-6281","REF_FRAME":"TEME","FILE":"3918755","MEAN_MOTION":"15.71358196"},{"CENTER_NAME":"EARTH","ECCENTRICITY":"0.00022690","TLE_LINE1":"1 56411U 23061AP  23147.83452278  .00002718  00000-0  24166-4 0  9996","OBJECT_NAME":"STARLINK-6279","REF_FRAME":"TEME","MEAN_MOTION":"15.71357439","FILE":"3918755","RCS_SIZE":"LARGE","MEAN_ELEMENT_THEORY":"SGP4","NORAD_CAT_ID":"56411","SEMIMAJOR_AXIS":"6733.154","EPOCH":"2023-05-27T20:01:42.768192","TLE_LINE2":"2 56411  42.9983 329.5760 0002269 274.1607  85.9002 15.71357439  3712","SITE":"AFETR","MEAN_MOTION_DDOT":"0.0000000000000","DECAY_DATE":null,"BSTAR":"0.00002416600000","PERIAPSIS":"353.491","OBJECT_ID":"2023-061AP","COUNTRY_CODE":"US","TIME_SYSTEM":"UTC","GP_ID":"232638414","PERIOD":"91.641","ARG_OF_PERICENTER":"274.1607","OBJECT_TYPE":"PAYLOAD","CLASSIFICATION_TYPE":"U","EPHEMERIS_TYPE":"0","MEAN_ANOMALY":"85.9002","REV_AT_EPOCH":"371","MEAN_MOTION_DOT":"0.00002718","LAUNCH_DATE":"2023-05-04","ELEMENT_SET_NO":"999","APOAPSIS":"356.546","INCLINATION":"42.9983","RA_OF_ASC_NODE":"329.5760"}];
